{"fetched_at":"2026-07-18T06:27:47.409Z","source":"https://celestrak.org/NORAD/elements/gp.php?GROUP=planet&FORMAT=JSON","constellation":"superdove","records":[{"OBJECT_NAME":"FLOCK 4BE-3","OBJECT_ID":"2024-149CX","EPOCH":"2026-07-17T18:36:57.088800","CLASSIFICATION_TYPE":"U","MEAN_MOTION":15.42446585,"ECCENTRICITY":0.00052296,"INCLINATION":97.3689,"RA_OF_ASC_NODE":282.999,"ARG_OF_PERICENTER":161.3553,"MEAN_ANOMALY":198.7887,"EPHEMERIS_TYPE":0,"NORAD_CAT_ID":60561,"ELEMENT_SET_NO":999,"REV_AT_EPOCH":10705,"BSTAR":0.00022874272,"MEAN_MOTION_DOT":0.00009814,"MEAN_MOTION_DDOT":0},{"OBJECT_NAME":"FLOCK 4BE-19","OBJECT_ID":"2024-149CZ","EPOCH":"2026-07-17T16:40:44.315040","CLASSIFICATION_TYPE":"U","MEAN_MOTION":15.45726426,"ECCENTRICITY":0.00060798,"INCLINATION":97.3739,"RA_OF_ASC_NODE":284.6146,"ARG_OF_PERICENTER":167.8066,"MEAN_ANOMALY":192.3331,"EPHEMERIS_TYPE":0,"NORAD_CAT_ID":60563,"ELEMENT_SET_NO":999,"REV_AT_EPOCH":10713,"BSTAR":0.00029141409,"MEAN_MOTION_DOT":0.00014008,"MEAN_MOTION_DDOT":0},{"OBJECT_NAME":"FLOCK 4G-8","OBJECT_ID":"2025-009E","EPOCH":"2026-07-17T04:04:06.117600","CLASSIFICATION_TYPE":"U","MEAN_MOTION":15.30265072,"ECCENTRICITY":0.00042546,"INCLINATION":97.4002,"RA_OF_ASC_NODE":280.0579,"ARG_OF_PERICENTER":185.0405,"MEAN_ANOMALY":175.0794,"EPHEMERIS_TYPE":0,"NORAD_CAT_ID":62613,"ELEMENT_SET_NO":999,"REV_AT_EPOCH":8350,"BSTAR":0.00018628089,"MEAN_MOTION_DOT":0.00005378,"MEAN_MOTION_DDOT":0},{"OBJECT_NAME":"FLOCK 4G-13","OBJECT_ID":"2025-009N","EPOCH":"2026-07-17T16:22:19.859520","CLASSIFICATION_TYPE":"U","MEAN_MOTION":15.49164844,"ECCENTRICITY":0.0006618,"INCLINATION":97.3943,"RA_OF_ASC_NODE":282.5962,"ARG_OF_PERICENTER":191.5246,"MEAN_ANOMALY":168.5854,"EPHEMERIS_TYPE":0,"NORAD_CAT_ID":62621,"ELEMENT_SET_NO":999,"REV_AT_EPOCH":8371,"BSTAR":0.00090164463,"MEAN_MOTION_DOT":0.0004925,"MEAN_MOTION_DDOT":0},{"OBJECT_NAME":"FLOCK 4G-9","OBJECT_ID":"2025-009P","EPOCH":"2026-07-17T18:48:27.956160","CLASSIFICATION_TYPE":"U","MEAN_MOTION":15.28534624,"ECCENTRICITY":0.0004333,"INCLINATION":97.3954,"RA_OF_ASC_NODE":279.5164,"ARG_OF_PERICENTER":194.8756,"MEAN_ANOMALY":165.2357,"EPHEMERIS_TYPE":0,"NORAD_CAT_ID":62622,"ELEMENT_SET_NO":999,"REV_AT_EPOCH":8353,"BSTAR":0.00017310393,"MEAN_MOTION_DOT":0.00004731,"MEAN_MOTION_DDOT":0},{"OBJECT_NAME":"FLOCK 4G-7","OBJECT_ID":"2025-009R","EPOCH":"2026-07-17T19:23:44.452896","CLASSIFICATION_TYPE":"U","MEAN_MOTION":15.29904582,"ECCENTRICITY":0.00028604,"INCLINATION":97.3936,"RA_OF_ASC_NODE":279.9622,"ARG_OF_PERICENTER":174.2565,"MEAN_ANOMALY":185.8709,"EPHEMERIS_TYPE":0,"NORAD_CAT_ID":62624,"ELEMENT_SET_NO":999,"REV_AT_EPOCH":8358,"BSTAR":0.00017982523,"MEAN_MOTION_DOT":0.0000513,"MEAN_MOTION_DDOT":0},{"OBJECT_NAME":"FLOCK 4G-12","OBJECT_ID":"2025-009S","EPOCH":"2026-07-17T19:17:09.902112","CLASSIFICATION_TYPE":"U","MEAN_MOTION":15.29804587,"ECCENTRICITY":0.00044433,"INCLINATION":97.4016,"RA_OF_ASC_NODE":280.5095,"ARG_OF_PERICENTER":179.8126,"MEAN_ANOMALY":180.3117,"EPHEMERIS_TYPE":0,"NORAD_CAT_ID":62625,"ELEMENT_SET_NO":999,"REV_AT_EPOCH":8358,"BSTAR":0.00020228377,"MEAN_MOTION_DOT":0.00005764,"MEAN_MOTION_DDOT":0},{"OBJECT_NAME":"FLOCK 4G-11","OBJECT_ID":"2025-009W","EPOCH":"2026-07-17T18:55:05.934432","CLASSIFICATION_TYPE":"U","MEAN_MOTION":15.2991282,"ECCENTRICITY":0.00029443,"INCLINATION":97.3918,"RA_OF_ASC_NODE":280.0495,"ARG_OF_PERICENTER":176.2492,"MEAN_ANOMALY":183.8771,"EPHEMERIS_TYPE":0,"NORAD_CAT_ID":62629,"ELEMENT_SET_NO":999,"REV_AT_EPOCH":8359,"BSTAR":0.00019349777,"MEAN_MOTION_DOT":0.00005528,"MEAN_MOTION_DDOT":0},{"OBJECT_NAME":"FLOCK 4G-26","OBJECT_ID":"2025-009AA","EPOCH":"2026-07-17T19:14:10.915872","CLASSIFICATION_TYPE":"U","MEAN_MOTION":15.30107016,"ECCENTRICITY":0.00039088,"INCLINATION":97.4011,"RA_OF_ASC_NODE":280.6695,"ARG_OF_PERICENTER":169.8871,"MEAN_ANOMALY":190.2449,"EPHEMERIS_TYPE":0,"NORAD_CAT_ID":62633,"ELEMENT_SET_NO":999,"REV_AT_EPOCH":8359,"BSTAR":0.0002182298,"MEAN_MOTION_DOT":0.00006283,"MEAN_MOTION_DDOT":0},{"OBJECT_NAME":"FLOCK 4G-28","OBJECT_ID":"2025-009AB","EPOCH":"2026-07-17T11:56:38.288832","CLASSIFICATION_TYPE":"U","MEAN_MOTION":15.35303767,"ECCENTRICITY":0.0002324,"INCLINATION":97.4024,"RA_OF_ASC_NODE":283.1702,"ARG_OF_PERICENTER":157.384,"MEAN_ANOMALY":202.7506,"EPHEMERIS_TYPE":0,"NORAD_CAT_ID":62634,"ELEMENT_SET_NO":999,"REV_AT_EPOCH":8373,"BSTAR":0.00013904,"MEAN_MOTION_DOT":0.00004685,"MEAN_MOTION_DDOT":0},{"OBJECT_NAME":"FLOCK 4G-24","OBJECT_ID":"2025-009AE","EPOCH":"2026-07-17T00:39:50.111712","CLASSIFICATION_TYPE":"U","MEAN_MOTION":15.30388487,"ECCENTRICITY":0.00038877,"INCLINATION":97.402,"RA_OF_ASC_NODE":280.2043,"ARG_OF_PERICENTER":160.636,"MEAN_ANOMALY":199.5029,"EPHEMERIS_TYPE":0,"NORAD_CAT_ID":62637,"ELEMENT_SET_NO":999,"REV_AT_EPOCH":8349,"BSTAR":0.00019782242,"MEAN_MOTION_DOT":0.00005738,"MEAN_MOTION_DDOT":0},{"OBJECT_NAME":"FLOCK 4G-3","OBJECT_ID":"2025-009AG","EPOCH":"2026-07-17T19:21:05.097600","CLASSIFICATION_TYPE":"U","MEAN_MOTION":15.29905873,"ECCENTRICITY":0.0003519,"INCLINATION":97.4019,"RA_OF_ASC_NODE":280.6867,"ARG_OF_PERICENTER":162.9846,"MEAN_ANOMALY":197.1513,"EPHEMERIS_TYPE":0,"NORAD_CAT_ID":62639,"ELEMENT_SET_NO":999,"REV_AT_EPOCH":8358,"BSTAR":0.00020025943,"MEAN_MOTION_DOT":0.00005723,"MEAN_MOTION_DDOT":0},{"OBJECT_NAME":"FLOCK 4G-27","OBJECT_ID":"2025-009AJ","EPOCH":"2026-07-17T18:15:15.072768","CLASSIFICATION_TYPE":"U","MEAN_MOTION":15.29836843,"ECCENTRICITY":0.00027873,"INCLINATION":97.3929,"RA_OF_ASC_NODE":279.986,"ARG_OF_PERICENTER":163.0782,"MEAN_ANOMALY":197.0552,"EPHEMERIS_TYPE":0,"NORAD_CAT_ID":62641,"ELEMENT_SET_NO":999,"REV_AT_EPOCH":8357,"BSTAR":0.00019082158,"MEAN_MOTION_DOT":0.00005437,"MEAN_MOTION_DDOT":0},{"OBJECT_NAME":"FLOCK 4G-29","OBJECT_ID":"2025-009AK","EPOCH":"2026-07-17T16:19:50.412576","CLASSIFICATION_TYPE":"U","MEAN_MOTION":15.29885917,"ECCENTRICITY":0.00036729,"INCLINATION":97.4015,"RA_OF_ASC_NODE":280.5208,"ARG_OF_PERICENTER":159.855,"MEAN_ANOMALY":200.2836,"EPHEMERIS_TYPE":0,"NORAD_CAT_ID":62642,"ELEMENT_SET_NO":999,"REV_AT_EPOCH":8356,"BSTAR":0.00015978767,"MEAN_MOTION_DOT":0.00004548,"MEAN_MOTION_DDOT":0},{"OBJECT_NAME":"FLOCK 4G-22","OBJECT_ID":"2025-009AN","EPOCH":"2026-07-17T02:38:54.385152","CLASSIFICATION_TYPE":"U","MEAN_MOTION":15.29794969,"ECCENTRICITY":0.0003143,"INCLINATION":97.4003,"RA_OF_ASC_NODE":279.9868,"ARG_OF_PERICENTER":157.2813,"MEAN_ANOMALY":202.8567,"EPHEMERIS_TYPE":0,"NORAD_CAT_ID":62645,"ELEMENT_SET_NO":999,"REV_AT_EPOCH":8349,"BSTAR":0.00019659,"MEAN_MOTION_DOT":0.00005597,"MEAN_MOTION_DDOT":0},{"OBJECT_NAME":"FLOCK 4G-25","OBJECT_ID":"2025-009AP","EPOCH":"2026-07-17T11:25:43.749984","CLASSIFICATION_TYPE":"U","MEAN_MOTION":15.30036582,"ECCENTRICITY":0.0002652,"INCLINATION":97.4011,"RA_OF_ASC_NODE":280.4309,"ARG_OF_PERICENTER":157.535,"MEAN_ANOMALY":202.6007,"EPHEMERIS_TYPE":0,"NORAD_CAT_ID":62646,"ELEMENT_SET_NO":999,"REV_AT_EPOCH":8355,"BSTAR":0.00019569,"MEAN_MOTION_DOT":0.00005613,"MEAN_MOTION_DDOT":0}]}
