FLOCK 4BE-3             
1 60561U 24149CX  26198.77566075  .00009814  00000+0  22874-3 0  9994
2 60561  97.3689 282.9990 0005229 161.3553 198.7887 15.42446585107058
FLOCK 4BE-19            
1 60563U 24149CZ  26198.69495735  .00014008  00000+0  29141-3 0  9996
2 60563  97.3739 284.6146 0006079 167.8066 192.3331 15.45726426107133
FLOCK 4G-8              
1 62613U 25009E   26198.16951525  .00005378  00000+0  18628-3 0  9994
2 62613  97.4002 280.0579 0004254 185.0405 175.0794 15.30265072 83501
FLOCK 4G-13             
1 62621U 25009N   26198.68217430  .00049250  00000+0  90164-3 0  9992
2 62621  97.3943 282.5962 0006618 191.5246 168.5854 15.49164844 83719
FLOCK 4G-9              
1 62622U 25009P   26198.78365690  .00004731  00000+0  17310-3 0  9993
2 62622  97.3954 279.5164 0004333 194.8756 165.2357 15.28534624 83532
FLOCK 4G-7              
1 62624U 25009R   26198.80815339  .00005130  00000+0  17983-3 0  9998
2 62624  97.3936 279.9622 0002860 174.2565 185.8709 15.29904582 83589
FLOCK 4G-12             
1 62625U 25009S   26198.80358683  .00005764  00000+0  20228-3 0  9992
2 62625  97.4016 280.5095 0004443 179.8126 180.3117 15.29804587 83582
FLOCK 4G-11             
1 62629U 25009W   26198.78826313  .00005528  00000+0  19350-3 0  9995
2 62629  97.3918 280.0495 0002944 176.2492 183.8771 15.29912820 83591
FLOCK 4G-26             
1 62633U 25009AA  26198.80151523  .00006283  00000+0  21823-3 0  9994
2 62633  97.4011 280.6695 0003908 169.8871 190.2449 15.30107016 83598
FLOCK 4G-28             
1 62634U 25009AB  26198.49766538  .00004685  00000+0  13904-3 0  9993
2 62634  97.4024 283.1702 0002324 157.3840 202.7506 15.35303767 83734
FLOCK 4G-24             
1 62637U 25009AE  26198.02766333  .00005738  00000+0  19782-3 0  9998
2 62637  97.4020 280.2043 0003887 160.6360 199.5029 15.30388487 83491
FLOCK 4G-3              
1 62639U 25009AG  26198.80630900  .00005723  00000+0  20026-3 0  9993
2 62639  97.4019 280.6867 0003519 162.9846 197.1513 15.29905873 83589
FLOCK 4G-27             
1 62641U 25009AJ  26198.76059112  .00005437  00000+0  19082-3 0  9993
2 62641  97.3929 279.9860 0002787 163.0782 197.0552 15.29836843 83573
FLOCK 4G-29             
1 62642U 25009AK  26198.68044459  .00004548  00000+0  15979-3 0  9996
2 62642  97.4015 280.5208 0003672 159.8550 200.2836 15.29885917 83562
FLOCK 4G-22             
1 62645U 25009AN  26198.11035168  .00005597  00000+0  19659-3 0  9998
2 62645  97.4003 279.9868 0003143 157.2813 202.8567 15.29794969 83490
FLOCK 4G-25             
1 62646U 25009AP  26198.47620081  .00005613  00000+0  19569-3 0  9991
2 62646  97.4011 280.4309 0002652 157.5350 202.6007 15.30036582 83556
